      2.10          N: GNSS NAV DATA                        RINEX VERSION / TYPE
fic2rin                                 07/10/2018 00:11:01 PGM / RUN BY / DATE
                                                            END OF HEADER
31 18  7  9  1 59 44.0 1.090485602617e-04-2.614797267597e-12 0.000000000000e+00
    4.500000000000e+01 1.035312500000e+02 4.362681723205e-09-1.759045138719e+00
    5.355104804039e-06 8.756039198488e-03 8.620321750641e-06 5.153695779800e+03
    9.358400000000e+04-5.029141902924e-08-3.321254313402e-01-3.911554813385e-08
    9.631153037211e-01 2.174687500000e+02-1.252908494039e-01-7.975332204599e-09
    9.500395729616e-11 1.000000000000e+00 2.009000000000e+03 0.000000000000e+00
    2.400000000000e+00 0.000000000000e+00-1.350417733192e-08 4.500000000000e+01
    8.871600000000e+04 4.000000000000e+00
 9 18  7  9  1 59 44.0 5.140029825270e-04-5.684341886081e-13 0.000000000000e+00
    2.000000000000e+00-1.375000000000e+01 4.802700051735e-09 1.494593462400e+00
   -8.735805749893e-07 8.966076420620e-04 1.015700399876e-05 5.153587995529e+03
    9.358400000000e+04-7.450580596924e-09-1.422294988844e+00-6.146728992462e-08
    9.522791798502e-01 1.758437500000e+02 1.851984176540e+00-8.054264063856e-09
   -5.660950087008e-10 1.000000000000e+00 2.009000000000e+03 0.000000000000e+00
    2.400000000000e+00 0.000000000000e+00 9.313225746155e-10 2.000000000000e+00
    8.928600000000e+04 4.000000000000e+00
 6 18  7  9  1 59 44.0 3.889743238688e-04-3.637978807092e-12 0.000000000000e+00
    4.000000000000e+00-2.721875000000e+01 4.239105147173e-09-7.558869612917e-01
   -1.654028892517e-06 1.067453529686e-03 1.027435064316e-05 5.153659669876e+03
    9.358400000000e+04 2.607703208923e-08 2.776306019055e+00-7.636845111847e-08
    9.718114417673e-01 1.893750000000e+02-1.033773733465e+00-7.829611849047e-09
    4.993065124061e-10 1.000000000000e+00 2.009000000000e+03 0.000000000000e+00
    2.400000000000e+00 0.000000000000e+00 4.656612873077e-09 4.000000000000e+00
    9.354600000000e+04 4.000000000000e+00
 9 18  7  9  3 59 44.0 5.139992572367e-04-5.684341886081e-13 0.000000000000e+00
    3.000000000000e+00-7.593750000000e+00 4.864131182016e-09 2.543750664534e+00
   -3.390014171600e-07 8.964946027845e-04 9.896233677864e-06 5.153589717865e+03
    1.007840000000e+05 9.872019290924e-08-1.422353498252e+00-9.685754776001e-08
    9.522750719762e-01 1.813125000000e+02 1.853061750294e+00-8.111766459061e-09
   -5.032352474823e-10 1.000000000000e+00 2.009000000000e+03 0.000000000000e+00
    2.400000000000e+00 0.000000000000e+00 9.313225746155e-10 3.000000000000e+00
    9.360600000000e+04 4.000000000000e+00
 6 18  7  9  3 59 44.0 3.889482468367e-04-3.637978807092e-12 0.000000000000e+00
    3.900000000000e+01-2.628125000000e+01 4.091599002950e-09 2.947121938430e-01
   -1.344829797745e-06 1.068020355888e-03 1.017376780510e-05 5.153660898209e+03
    1.007840000000e+05 7.450580596924e-09 2.776249351461e+00 1.303851604462e-08
    9.718153931090e-01 1.829062500000e+02-1.034186558707e+00-7.821754378894e-09
    5.653806932324e-10 1.000000000000e+00 2.009000000000e+03 0.000000000000e+00
    2.400000000000e+00 0.000000000000e+00 4.656612873077e-09 3.900000000000e+01
    9.360600000000e+04 4.000000000000e+00
31 18  7  9  3 59 44.0 1.090294681489e-04-2.614797267597e-12 0.000000000000e+00
    4.600000000000e+01 9.328125000000e+01 4.334466262204e-09-7.087207766537e-01
    4.867091774940e-06 8.756954804994e-03 9.018927812576e-06 5.153698831558e+03
    1.007840000000e+05 8.009374141693e-08-3.321823242243e-01-1.322478055954e-07
    9.631155290105e-01 2.092812500000e+02-1.254498042307e-01-8.022834183247e-09
   -2.500104139373e-11 1.000000000000e+00 2.009000000000e+03 0.000000000000e+00
    2.400000000000e+00 0.000000000000e+00-1.350417733192e-08 4.600000000000e+01
    9.360600000000e+04 4.000000000000e+00
 1 18  7  9  4  0  0.0-6.392830982804e-05-3.751665644813e-12 0.000000000000e+00
    4.300000000000e+01-1.162500000000e+01 4.190888853057e-09 1.449384945958e-01
   -5.643814802170e-07 7.991083315574e-03 1.012720167637e-05 5.153668966293e+03
    1.008000000000e+05 2.235174179077e-08 2.784572386880e+00 2.011656761169e-07
    9.721105104990e-01 1.936875000000e+02 6.560781289275e-01-7.921401386735e-09
    5.225217651289e-10 1.000000000000e+00 2.009000000000e+03 0.000000000000e+00
    3.400000000000e+00 0.000000000000e+00 5.587935447693e-09 4.300000000000e+01
    9.360600000000e+04 4.000000000000e+00
 2 18  7  9  4  0  0.0 6.309757009149e-05-1.080024958355e-11 0.000000000000e+00
    3.900000000000e+01-2.868750000000e+01 4.673051794222e-09 4.708839733390e-01
   -1.624226570129e-06 1.790333096869e-02 1.043640077114e-05 5.153773433685e+03
    1.008000000000e+05-2.346932888031e-07 2.722580879245e+00 2.793967723846e-08
    9.511563112268e-01 1.758437500000e+02-1.846737210189e+00-8.350704983239e-09
    4.003738200338e-10 1.000000000000e+00 2.009000000000e+03 0.000000000000e+00
    2.400000000000e+00 0.000000000000e+00-2.048909664154e-08 3.900000000000e+01
    9.360600000000e+04 4.000000000000e+00
 5 18  7  9  4  0  0.0-4.888046532869e-06 5.684341886081e-13 0.000000000000e+00
    5.600000000000e+01-2.437500000000e+00 5.308435403356e-09-3.139808111508e+00
   -1.788139343262e-07 5.458932602778e-03 6.074085831642e-06 5.153730974197e+03
    1.008000000000e+05-4.842877388000e-08-2.478635718544e+00-8.009374141693e-08
    9.480967994658e-01 2.585312500000e+02 6.269243689107e-01-8.275344701323e-09
    2.535819912792e-10 1.000000000000e+00 2.009000000000e+03 0.000000000000e+00
    2.400000000000e+00 0.000000000000e+00-1.117587089539e-08 5.600000000000e+01
    9.360600000000e+04 4.000000000000e+00
 3 18  7  9  4  0  0.0 1.026517711580e-04 6.139089236967e-12 0.000000000000e+00
    8.900000000000e+01-9.312500000000e+00 5.051996150204e-09-7.644439012197e-01
   -3.874301910400e-07 1.514646341093e-03 5.841255187988e-06 5.153713968277e+03
    1.008000000000e+05 1.490116119385e-08-2.456219110288e+00 0.000000000000e+00
    9.611904824246e-01 2.685312500000e+02 4.739811011125e-01-8.241414716575e-09
    1.978653847446e-10 1.000000000000e+00 2.009000000000e+03 0.000000000000e+00
    2.400000000000e+00 0.000000000000e+00 2.328306436539e-09 8.900000000000e+01
    9.360600000000e+04 4.000000000000e+00
19 18  7  9  4  0  0.0-4.219510592520e-04 3.183231456205e-12 0.000000000000e+00
    5.000000000000e+00-9.871875000000e+01 3.885876148053e-09-1.142190384586e+00
   -4.736706614494e-06 9.888046421111e-03 8.432194590569e-06 5.153722019196e+03
    1.008000000000e+05 6.519258022308e-08 1.829509151040e+00 2.104789018631e-07
    9.803310012126e-01 2.247187500000e+02 1.226796188986e+00-7.941759377584e-09
   -9.857553463812e-11 1.000000000000e+00 2.009000000000e+03 0.000000000000e+00
    2.400000000000e+00 0.000000000000e+00-1.536682248116e-08 5.000000000000e+00
    9.360600000000e+04 4.000000000000e+00
18 18  7  9  4  0  0.0 3.135623410344e-05 4.661160346586e-12 0.000000000000e+00
    1.900000000000e+01-1.128125000000e+01 4.700195782020e-09-1.074305404675e-01
   -7.171183824539e-07 1.477314590011e-02 1.024641096592e-05 5.153644128799e+03
    1.008000000000e+05-2.123415470123e-07 2.736516524223e+00 2.272427082062e-07
    9.504858149094e-01 1.829062500000e+02 1.319380739812e+00-8.313560578882e-09
    5.275219734076e-10 1.000000000000e+00 2.009000000000e+03 0.000000000000e+00
    2.400000000000e+00 0.000000000000e+00-6.984919309616e-09 1.900000000000e+01
    9.360600000000e+04 4.000000000000e+00
28 18  7  9  4  0  0.0 7.298323325813e-04 2.955857780762e-12 0.000000000000e+00
    1.300000000000e+01 1.503125000000e+01 4.071598169835e-09-3.055610670449e+00
    8.419156074524e-07 1.947114372160e-02 2.026557922363e-06 5.153680593491e+03
    1.008000000000e+05 1.750886440277e-07 7.713408621516e-01 4.656612873077e-08
    9.855596167197e-01 3.536250000000e+02-1.518037786699e+00-7.836755003730e-09
   -8.857511808063e-11 1.000000000000e+00 2.009000000000e+03 0.000000000000e+00
    3.400000000000e+00 0.000000000000e+00-1.117587089539e-08 1.300000000000e+01
    9.360600000000e+04 4.000000000000e+00
14 18  7  9  4  0  0.0-9.759888052940e-05-1.136868377216e-13 0.000000000000e+00
    4.400000000000e+01-8.906250000000e+00 4.540189117101e-09 2.001033920055e+00
   -6.370246410370e-07 1.003414881416e-02 9.823590517044e-06 5.153605424881e+03
    1.008000000000e+05-3.725290298462e-08-1.332169811043e+00-2.048909664154e-07
    9.605650747053e-01 1.908750000000e+02-1.948094424307e+00-7.862827518327e-09
   -4.457328522767e-10 1.000000000000e+00 2.009000000000e+03 0.000000000000e+00
    2.400000000000e+00 0.000000000000e+00-9.778887033463e-09 4.400000000000e+01
    9.360600000000e+04 4.000000000000e+00
 8 18  7  9  4  0  0.0-1.075272448361e-04-1.250555214938e-12 0.000000000000e+00
    3.900000000000e+01-8.781250000000e+01 4.175531070486e-09 2.643029709893e+00
   -4.582107067108e-06 3.455684636720e-03 7.184222340584e-06 5.153594724655e+03
    1.008000000000e+05 9.313225746155e-09 1.719462695072e+00 3.352761268616e-08
    9.692372267466e-01 2.453125000000e+02-4.050292560085e-01-7.992118618106e-09
   -2.064371703653e-10 1.000000000000e+00 2.009000000000e+03 0.000000000000e+00
    2.400000000000e+00 0.000000000000e+00 5.122274160385e-09 3.900000000000e+01
    9.360600000000e+04 4.000000000000e+00
22 18  7  9  4  0  0.0-4.518073983490e-04-1.216449163621e-11 0.000000000000e+00
    8.400000000000e+01-8.156250000000e+00 5.871315992449e-09 1.613456605252e+00
   -4.917383193970e-07 7.306581945159e-03 5.451962351799e-06 5.153762069702e+03
    1.008000000000e+05 5.029141902924e-08-2.517380767402e+00-2.048909664154e-07
    9.253591362823e-01 2.580000000000e+02-1.512561095395e+00-8.642145694343e-09
    2.435815747217e-10 1.000000000000e+00 2.009000000000e+03 0.000000000000e+00
    2.400000000000e+00 0.000000000000e+00-1.769512891769e-08 8.400000000000e+01
    9.360600000000e+04 4.000000000000e+00
